IRIDIUM 126             
1 42809U 17039G   25105.88623845  .00000418  00000+0  14236-3 0  9991
2 42809  86.4027 172.2344 0002043  89.1304 271.0126 14.34217318408712
IRIDIUM 124             
1 42810U 17039H   25106.04373434  .00000613  00000+0  17633-3 0  9999
2 42810  86.4450 108.9617 0001900  88.6616 271.4802 14.43271920413501
IRIDIUM 128             
1 42811U 17039J   25106.01651316  .00000465  00000+0  15884-3 0  9996
2 42811  86.4031 203.6353 0002105 106.5323 253.6104 14.34218773408755
IRIDIUM 121             
1 42812U 17039K   25105.69595995  .00000211  00000+0  68115-4 0  9995
2 42812  86.4027 172.3388 0002469  99.6406 260.5069 14.34216600408550
IRIDIUM 133             
1 42955U 17061A   25105.83892214  .00000454  00000+0  15508-3 0  9994
2 42955  86.4039 203.8160 0002281  92.8254 267.3203 14.34215378393523
IRIDIUM 100             
1 42956U 17061B   25105.76280929  .00000031  00000+0  41709-5 0  9996
2 42956  86.4033 203.7770 0002078  98.5850 261.5582 14.34217810393511
IRIDIUM 122             
1 42957U 17061C   25105.80086500  .00000164  00000+0  51323-4 0  9990
2 42957  86.4033 203.7601 0002016  95.4267 264.7159 14.34217544393525
IRIDIUM 129             
1 42958U 17061D   25105.82623678  .00000037  00000+0  62001-5 0  9991
2 42958  86.4034 203.8117 0002525  88.7391 271.4094 14.34217431393548
